     2              NAVIGATION DATA                         RINEX VERSION / TYPE
CCRINEXN V1.6.0 UX  CDDIS               14-MAR-17 00:31     PGM / RUN BY / DATE 
IGS BROADCAST EPHEMERIS FILE                                COMMENT             
    0.1025D-07  0.0000D+00 -0.5960D-07  0.0000D+00          ION ALPHA           
    0.9011D+05  0.0000D+00 -0.1966D+06  0.0000D+00          ION BETA            
    0.000000000000D+00-0.888178419700D-15   233472     1940 DELTA-UTC: A0,A1,T,W
    18                                                      LEAP SECONDS        
                                                            END OF HEADER       
 1 17  3 13  0  0  0.0 0.511682592332D-04 0.795807864051D-12 0.000000000000D+00
    0.720000000000D+02-0.540937500000D+02 0.486484549748D-08-0.256568249246D+00
   -0.288896262646D-05 0.633034168277D-02 0.314041972160D-05 0.515368617821D+04
    0.864000000000D+05 0.447034835815D-07-0.113691582175D+01 0.108033418655D-06
    0.966516980317D+00 0.319031250000D+03 0.535994119495D+00-0.857892877539D-08
   -0.416088760338D-09 0.100000000000D+01 0.194000000000D+04 0.000000000000D+00
    0.200000000000D+01 0.000000000000D+00 0.512227416039D-08 0.720000000000D+02
    0.863700000000D+05 0.400000000000D+01 0.000000000000D+00 0.000000000000D+00
 2 17  3 13  0  0  0.0 0.460033304989D-03-0.704858393874D-11 0.000000000000D+00
    0.390000000000D+02-0.399687500000D+02 0.535022293135D-08 0.114888403209D+00
   -0.202283263207D-05 0.167271073442D-01 0.321120023727D-05 0.515374346924D+04
    0.864000000000D+05-0.182539224625D-06-0.118868896363D+01 0.197440385819D-06
    0.945385608500D+00 0.312437500000D+03-0.200568211111D+01-0.896858765031D-08
   -0.347871620399D-09 0.100000000000D+01 0.194000000000D+04 0.000000000000D+00
    0.200000000000D+01 0.000000000000D+00-0.204890966415D-07 0.390000000000D+02
    0.864000000000D+05 0.000000000000D+00 0.000000000000D+00 0.000000000000D+00
 3 17  3 13  0  0  0.0-0.107015483081D-03 0.568434188608D-12 0.000000000000D+00
    0.530000000000D+02-0.590937500000D+02 0.412302888356D-08-0.107502487949D+01
   -0.303611159325D-05 0.512824975885D-03 0.130143016577D-04 0.515379368782D+04
    0.864000000000D+05 0.596046447754D-07-0.947895867668D-01-0.763684511185D-07
    0.960254007120D+00 0.130375000000D+03 0.272031432321D+00-0.783639784600D-08
   -0.254296306748D-09 0.100000000000D+01 0.194000000000D+04 0.000000000000D+00
    0.200000000000D+01 0.000000000000D+00 0.186264514923D-08 0.530000000000D+02
    0.792180000000D+05 0.400000000000D+01 0.000000000000D+00 0.000000000000D+00
 4 17  3 13  0  0  0.0 0.452622771263D-06 0.454747350886D-12 0.000000000000D+00
    0.180000000000D+02-0.145625000000D+02 0.503235247482D-08 0.300202048630D+01
   -0.849366188049D-06 0.900108250789D-02 0.138450413942D-04 0.515374229431D+04
    0.864000000000D+05-0.558793544769D-08 0.307171887020D+01-0.160187482834D-06
    0.982690693926D+00 0.123187500000D+03 0.878969137941D+00-0.745602485908D-08
   -0.242152943785D-09 0.100000000000D+01 0.194000000000D+04 0.000000000000D+00
    0.200000000000D+01 0.630000000000D+02-0.195577740669D-07 0.180000000000D+02
    0.828600000000D+05 0.400000000000D+01 0.000000000000D+00 0.000000000000D+00
 5 17  3 13  0  0  0.0-0.561061315238D-04 0.193267624127D-11 0.000000000000D+00
    0.340000000000D+02-0.477500000000D+02 0.446697178159D-08 0.268760120305D+01
   -0.249594449997D-05 0.491387955844D-02 0.119321048260D-04 0.515371073341D+04
    0.864000000000D+05-0.130385160446D-07-0.110592352627D+00-0.428408384323D-07
    0.947226276896D+00 0.144000000000D+03 0.548397787883D+00-0.796176021070D-08
   -0.163221084528D-09 0.100000000000D+01 0.194000000000D+04 0.000000000000D+00
    0.200000000000D+01 0.000000000000D+00-0.107102096081D-07 0.340000000000D+02
    0.859800000000D+05 0.400000000000D+01 0.000000000000D+00 0.000000000000D+00
 6 17  3 13  0  0  0.0 0.323802698404D-03 0.500222085975D-11 0.000000000000D+00
    0.530000000000D+02-0.522500000000D+02 0.473091121833D-08-0.271790488251D-01
   -0.269338488579D-05 0.746957957745D-03 0.335276126862D-05 0.515362966347D+04
    0.864000000000D+05-0.111758708954D-07-0.114530573447D+01-0.204890966415D-07
    0.966297361204D+00 0.319468750000D+03-0.126813868400D+01-0.839999270141D-08
   -0.354300477845D-09 0.100000000000D+01 0.194000000000D+04 0.000000000000D+00
    0.200000000000D+01 0.000000000000D+00 0.419095158577D-08 0.530000000000D+02
    0.864000000000D+05 0.000000000000D+00 0.000000000000D+00 0.000000000000D+00
 7 17  3 13  0  0  0.0 0.373835209757D-03-0.397903932026D-11 0.000000000000D+00
    0.490000000000D+02-0.447812500000D+02 0.497770734149D-08-0.859927661633D+00
   -0.223144888878D-05 0.102177235531D-01 0.389851629734D-05 0.515359271812D+04
    0.864000000000D+05 0.236555933952D-06 0.202082500436D+01 0.100582838059D-06
    0.962794317551D+00 0.302062500000D+03-0.261441673217D+01-0.847499587474D-08
   -0.230366738556D-09 0.100000000000D+01 0.194000000000D+04 0.000000000000D+00
    0.200000000000D+01 0.000000000000D+00-0.111758708954D-07 0.490000000000D+02
    0.854700000000D+05 0.400000000000D+01 0.000000000000D+00 0.000000000000D+00
 8 17  3 13  0  0  0.0-0.525801442563D-04-0.136424205266D-11 0.000000000000D+00
    0.110000000000D+02 0.974375000000D+02 0.461340645261D-08 0.250424801283D+01
    0.529550015926D-05 0.257509364747D-02 0.753626227379D-05 0.515360224342D+04
    0.864000000000D+05 0.132247805595D-06-0.219995043302D+01 0.409781932831D-07
    0.965952961030D+00 0.234875000000D+03-0.809697370208D+00-0.822141388346D-08
    0.446804325479D-09 0.100000000000D+01 0.194000000000D+04 0.000000000000D+00
    0.200000000000D+01 0.000000000000D+00 0.465661287308D-08 0.110000000000D+02
    0.858300000000D+05 0.400000000000D+01 0.000000000000D+00 0.000000000000D+00
 9 17  3 13  0  0  0.0 0.320913735777D-03 0.773070496507D-11 0.000000000000D+00
    0.410000000000D+02 0.726250000000D+02 0.472233956154D-08 0.202392815790D+01
    0.382028520107D-05 0.898863538168D-03 0.774487853050D-05 0.515367363930D+04
    0.864000000000D+05 0.167638063431D-07 0.941720173625D+00-0.558793544769D-08
    0.953778492405D+00 0.225937500000D+03 0.179461386034D+01-0.821212778237D-08
    0.606453832665D-09 0.100000000000D+01 0.194000000000D+04 0.000000000000D+00
    0.200000000000D+01 0.000000000000D+00 0.139698386192D-08 0.410000000000D+02
    0.852900000000D+05 0.400000000000D+01 0.000000000000D+00 0.000000000000D+00
10 17  3 13  0  0  0.0-0.949469394982D-04 0.557065504836D-11 0.000000000000D+00
    0.600000000000D+02-0.449375000000D+02 0.403838250055D-08-0.239910888045D+01
   -0.239908695221D-05 0.231235031970D-02 0.134315341711D-04 0.515368601990D+04
    0.864000000000D+05-0.372529029846D-07-0.985566608005D-01 0.316649675369D-07
    0.960434975938D+00 0.121343750000D+03-0.284375303055D+01-0.775067998979D-08
   -0.145006040084D-09 0.100000000000D+01 0.194000000000D+04 0.000000000000D+00
    0.200000000000D+01 0.000000000000D+00 0.232830643654D-08 0.600000000000D+02
    0.863700000000D+05 0.400000000000D+01 0.000000000000D+00 0.000000000000D+00
12 17  3 13  0  0  0.0 0.387107487768D-03-0.454747350886D-12 0.000000000000D+00
    0.680000000000D+02-0.265625000000D+01 0.377051412315D-08-0.147139781954D+01
   -0.156462192535D-06 0.654708349612D-02 0.126361846924D-04 0.515357167435D+04
    0.864000000000D+05 0.149011611938D-06 0.310311719713D+01 0.372529029846D-08
    0.989921244068D+00 0.152500000000D+03 0.808282766462D+00-0.749281170442D-08
   -0.118576370944D-09 0.100000000000D+01 0.194000000000D+04 0.000000000000D+00
    0.200000000000D+01 0.000000000000D+00-0.121071934700D-07 0.680000000000D+02
    0.864000000000D+05 0.000000000000D+00 0.000000000000D+00 0.000000000000D+00
13 17  3 13  0  0  0.0-0.735698267817D-04-0.159161572810D-11 0.000000000000D+00
    0.180000000000D+02 0.707812500000D+02 0.452090259945D-08 0.163849952597D+00
    0.357627868652D-05 0.401162926573D-02 0.643171370029D-05 0.515368623352D+04
    0.864000000000D+05-0.372529029846D-07 0.106684127040D+01-0.204890966415D-07
    0.969788057828D+00 0.258906250000D+03 0.184030966456D+01-0.824284334751D-08
    0.547879964257D-09 0.100000000000D+01 0.194000000000D+04 0.000000000000D+00
    0.200000000000D+01 0.000000000000D+00-0.111758708954D-07 0.180000000000D+02
    0.854700000000D+05 0.400000000000D+01 0.000000000000D+00 0.000000000000D+00
14 17  3 13  0  0  0.0-0.624940730631D-04-0.159161572810D-11 0.000000000000D+00
    0.400000000000D+02 0.795937500000D+02 0.469269546960D-08 0.151613274552D+01
    0.413879752159D-05 0.876729993615D-02 0.706687569618D-05 0.515362995529D+04
    0.864000000000D+05-0.178813934326D-06 0.102787812972D+01-0.109896063805D-06
    0.962337743744D+00 0.241718750000D+03-0.195827112761D+01-0.832498962638D-08
    0.643241079287D-09 0.100000000000D+01 0.194000000000D+04 0.000000000000D+00
    0.200000000000D+01 0.000000000000D+00-0.931322574616D-08 0.400000000000D+02
    0.792180000000D+05 0.400000000000D+01 0.000000000000D+00 0.000000000000D+00
15 17  3 13  0  0  0.0-0.345413573086D-03-0.909494701773D-12 0.000000000000D+00
    0.340000000000D+02 0.826562500000D+02 0.529486340946D-08 0.102568866800D+01
    0.438839197159D-05 0.909436948132D-02 0.782869756222D-05 0.515376076889D+04
    0.864000000000D+05-0.121071934700D-06 0.881970238309D+00 0.108033418655D-06
    0.929477736364D+00 0.212125000000D+03 0.576195512079D+00-0.857678582899D-08
    0.452518849226D-09 0.100000000000D+01 0.194000000000D+04 0.000000000000D+00
    0.200000000000D+01 0.000000000000D+00-0.107102096081D-07 0.340000000000D+02
    0.854700000000D+05 0.400000000000D+01 0.000000000000D+00 0.000000000000D+00
